{
  "type": "FeatureCollection",
  "name": "mumbai_wards_prototype",
  "crs": { "type": "name", "properties": { "name": "urn:ogc:def:crs:OGC:1.3:CRS84" } },
  "features": [
    {
      "type": "Feature",
      "properties": {
        "ward_id": "ward-a",
        "ward_name": "Ward A - Colaba & Fort",
        "city_id": "mumbai",
        "population": 185000,
        "population_density": 14800,
        "elderly_percent": 12.4,
        "children_percent": 6.2,
        "outdoor_worker_percent": 24.0,
        "cooling_centers": 3,
        "hospitals": 5,
        "water_points": 14,
        "ambulances": 8,
        "tree_cover": 22.0,
        "built_up_density": 78.0
      },
      "geometry": {
        "type": "Polygon",
        "coordinates": [
          [[72.820, 18.890], [72.842, 18.900], [72.845, 18.940], [72.825, 18.945], [72.818, 18.910], [72.820, 18.890]]
        ]
      }
    },
    {
      "type": "Feature",
      "properties": {
        "ward_id": "ward-b",
        "ward_name": "Ward B - Sandhurst Road & Dongri",
        "city_id": "mumbai",
        "population": 127000,
        "population_density": 51000,
        "elderly_percent": 8.8,
        "children_percent": 9.1,
        "outdoor_worker_percent": 42.0,
        "cooling_centers": 1,
        "hospitals": 2,
        "water_points": 8,
        "ambulances": 4,
        "tree_cover": 5.0,
        "built_up_density": 95.0
      },
      "geometry": {
        "type": "Polygon",
        "coordinates": [
          [[72.835, 18.945], [72.850, 18.945], [72.852, 18.965], [72.836, 18.962], [72.835, 18.945]]
        ]
      }
    },
    {
      "type": "Feature",
      "properties": {
        "ward_id": "ward-c",
        "ward_name": "Ward C - Marine Lines & Bhuleshwar",
        "city_id": "mumbai",
        "population": 166000,
        "population_density": 92000,
        "elderly_percent": 11.2,
        "children_percent": 7.5,
        "outdoor_worker_percent": 38.0,
        "cooling_centers": 2,
        "hospitals": 4,
        "water_points": 10,
        "ambulances": 6,
        "tree_cover": 4.0,
        "built_up_density": 96.0
      },
      "geometry": {
        "type": "Polygon",
        "coordinates": [
          [[72.820, 18.945], [72.835, 18.945], [72.836, 18.962], [72.822, 18.960], [72.820, 18.945]]
        ]
      }
    },
    {
      "type": "Feature",
      "properties": {
        "ward_id": "ward-d",
        "ward_name": "Ward D - Malabar Hill & Grant Road",
        "city_id": "mumbai",
        "population": 346000,
        "population_density": 43000,
        "elderly_percent": 13.5,
        "children_percent": 6.8,
        "outdoor_worker_percent": 22.0,
        "cooling_centers": 4,
        "hospitals": 7,
        "water_points": 15,
        "ambulances": 10,
        "tree_cover": 28.0,
        "built_up_density": 72.0
      },
      "geometry": {
        "type": "Polygon",
        "coordinates": [
          [[72.795, 18.945], [72.820, 18.945], [72.822, 18.975], [72.802, 18.975], [72.795, 18.945]]
        ]
      }
    },
    {
      "type": "Feature",
      "properties": {
        "ward_id": "ward-e",
        "ward_name": "Ward E - Byculla & Mazgaon",
        "city_id": "mumbai",
        "population": 393000,
        "population_density": 54000,
        "elderly_percent": 9.6,
        "children_percent": 8.7,
        "outdoor_worker_percent": 36.5,
        "cooling_centers": 2,
        "hospitals": 5,
        "water_points": 12,
        "ambulances": 7,
        "tree_cover": 8.0,
        "built_up_density": 92.0
      },
      "geometry": {
        "type": "Polygon",
        "coordinates": [
          [[72.822, 18.960], [72.855, 18.960], [72.855, 18.985], [72.822, 18.980], [72.822, 18.960]]
        ]
      }
    },
    {
      "type": "Feature",
      "properties": {
        "ward_id": "ward-fn",
        "ward_name": "Ward F/North - Matunga & Sion",
        "city_id": "mumbai",
        "population": 529000,
        "population_density": 40500,
        "elderly_percent": 10.4,
        "children_percent": 7.6,
        "outdoor_worker_percent": 32.0,
        "cooling_centers": 3,
        "hospitals": 6,
        "water_points": 16,
        "ambulances": 9,
        "tree_cover": 18.0,
        "built_up_density": 82.0
      },
      "geometry": {
        "type": "Polygon",
        "coordinates": [
          [[72.845, 19.010], [72.875, 19.010], [72.875, 19.040], [72.845, 19.040], [72.845, 19.010]]
        ]
      }
    },
    {
      "type": "Feature",
      "properties": {
        "ward_id": "ward-fs",
        "ward_name": "Ward F/South - Parel & Sewri",
        "city_id": "mumbai",
        "population": 361000,
        "population_density": 26000,
        "elderly_percent": 10.8,
        "children_percent": 7.2,
        "outdoor_worker_percent": 31.0,
        "cooling_centers": 3,
        "hospitals": 8,
        "water_points": 14,
        "ambulances": 12,
        "tree_cover": 12.0,
        "built_up_density": 88.0
      },
      "geometry": {
        "type": "Polygon",
        "coordinates": [
          [[72.835, 18.980], [72.865, 18.980], [72.865, 19.010], [72.835, 19.010], [72.835, 18.980]]
        ]
      }
    },
    {
      "type": "Feature",
      "properties": {
        "ward_id": "ward-gn",
        "ward_name": "Ward G/North - Dharavi & Dadar West",
        "city_id": "mumbai",
        "population": 599000,
        "population_density": 66000,
        "elderly_percent": 7.8,
        "children_percent": 11.2,
        "outdoor_worker_percent": 48.5,
        "cooling_centers": 2,
        "hospitals": 4,
        "water_points": 18,
        "ambulances": 6,
        "tree_cover": 6.0,
        "built_up_density": 94.0
      },
      "geometry": {
        "type": "Polygon",
        "coordinates": [
          [[72.830, 19.025], [72.860, 19.025], [72.860, 19.055], [72.830, 19.055], [72.830, 19.025]]
        ]
      }
    },
    {
      "type": "Feature",
      "properties": {
        "ward_id": "ward-gs",
        "ward_name": "Ward G/South - Worli & Lower Parel",
        "city_id": "mumbai",
        "population": 379000,
        "population_density": 38000,
        "elderly_percent": 11.0,
        "children_percent": 7.0,
        "outdoor_worker_percent": 26.0,
        "cooling_centers": 3,
        "hospitals": 5,
        "water_points": 14,
        "ambulances": 8,
        "tree_cover": 15.0,
        "built_up_density": 85.0
      },
      "geometry": {
        "type": "Polygon",
        "coordinates": [
          [[72.810, 18.980], [72.835, 18.980], [72.835, 19.025], [72.810, 19.025], [72.810, 18.980]]
        ]
      }
    },
    {
      "type": "Feature",
      "properties": {
        "ward_id": "ward-he",
        "ward_name": "Ward H/East - Santacruz East & Bandra East",
        "city_id": "mumbai",
        "population": 557000,
        "population_density": 41000,
        "elderly_percent": 8.5,
        "children_percent": 8.8,
        "outdoor_worker_percent": 37.0,
        "cooling_centers": 2,
        "hospitals": 4,
        "water_points": 15,
        "ambulances": 7,
        "tree_cover": 14.0,
        "built_up_density": 86.0
      },
      "geometry": {
        "type": "Polygon",
        "coordinates": [
          [[72.845, 19.055], [72.875, 19.055], [72.875, 19.090], [72.845, 19.090], [72.845, 19.055]]
        ]
      }
    },
    {
      "type": "Feature",
      "properties": {
        "ward_id": "ward-hw",
        "ward_name": "Ward H/West - Bandra West & Khar",
        "city_id": "mumbai",
        "population": 307000,
        "population_density": 27000,
        "elderly_percent": 13.0,
        "children_percent": 6.5,
        "outdoor_worker_percent": 21.0,
        "cooling_centers": 4,
        "hospitals": 6,
        "water_points": 16,
        "ambulances": 9,
        "tree_cover": 24.0,
        "built_up_density": 76.0
      },
      "geometry": {
        "type": "Polygon",
        "coordinates": [
          [[72.815, 19.050], [72.845, 19.050], [72.845, 19.090], [72.815, 19.090], [72.815, 19.050]]
        ]
      }
    },
    {
      "type": "Feature",
      "properties": {
        "ward_id": "ward-ke",
        "ward_name": "Ward K/East - Andheri East & Jogeshwari East",
        "city_id": "mumbai",
        "population": 823000,
        "population_density": 33000,
        "elderly_percent": 8.9,
        "children_percent": 8.4,
        "outdoor_worker_percent": 36.0,
        "cooling_centers": 4,
        "hospitals": 8,
        "water_points": 22,
        "ambulances": 11,
        "tree_cover": 16.0,
        "built_up_density": 84.0
      },
      "geometry": {
        "type": "Polygon",
        "coordinates": [
          [[72.850, 19.100], [72.890, 19.100], [72.890, 19.145], [72.850, 19.145], [72.850, 19.100]]
        ]
      }
    },
    {
      "type": "Feature",
      "properties": {
        "ward_id": "ward-kw",
        "ward_name": "Ward K/West - Andheri West & Juhu",
        "city_id": "mumbai",
        "population": 749000,
        "population_density": 31000,
        "elderly_percent": 11.5,
        "children_percent": 7.0,
        "outdoor_worker_percent": 25.5,
        "cooling_centers": 4,
        "hospitals": 7,
        "water_points": 20,
        "ambulances": 10,
        "tree_cover": 20.0,
        "built_up_density": 80.0
      },
      "geometry": {
        "type": "Polygon",
        "coordinates": [
          [[72.810, 19.100], [72.850, 19.100], [72.850, 19.150], [72.810, 19.150], [72.810, 19.100]]
        ]
      }
    },
    {
      "type": "Feature",
      "properties": {
        "ward_id": "ward-l",
        "ward_name": "Ward L - Kurla & Sakinaka",
        "city_id": "mumbai",
        "population": 902000,
        "population_density": 57000,
        "elderly_percent": 7.4,
        "children_percent": 10.5,
        "outdoor_worker_percent": 44.0,
        "cooling_centers": 2,
        "hospitals": 5,
        "water_points": 24,
        "ambulances": 8,
        "tree_cover": 9.0,
        "built_up_density": 91.0
      },
      "geometry": {
        "type": "Polygon",
        "coordinates": [
          [[72.875, 19.055], [72.915, 19.055], [72.915, 19.105], [72.875, 19.105], [72.875, 19.055]]
        ]
      }
    },
    {
      "type": "Feature",
      "properties": {
        "ward_id": "ward-me",
        "ward_name": "Ward M/East - Govandi & Mankhurd",
        "city_id": "mumbai",
        "population": 807000,
        "population_density": 62000,
        "elderly_percent": 6.8,
        "children_percent": 12.0,
        "outdoor_worker_percent": 49.0,
        "cooling_centers": 2,
        "hospitals": 3,
        "water_points": 18,
        "ambulances": 6,
        "tree_cover": 7.0,
        "built_up_density": 93.0
      },
      "geometry": {
        "type": "Polygon",
        "coordinates": [
          [[72.905, 19.030], [72.945, 19.030], [72.945, 19.075], [72.905, 19.075], [72.905, 19.030]]
        ]
      }
    },
    {
      "type": "Feature",
      "properties": {
        "ward_id": "ward-mw",
        "ward_name": "Ward M/West - Chembur & Tilak Nagar",
        "city_id": "mumbai",
        "population": 412000,
        "population_density": 32000,
        "elderly_percent": 10.6,
        "children_percent": 7.3,
        "outdoor_worker_percent": 28.0,
        "cooling_centers": 3,
        "hospitals": 5,
        "water_points": 15,
        "ambulances": 7,
        "tree_cover": 21.0,
        "built_up_density": 79.0
      },
      "geometry": {
        "type": "Polygon",
        "coordinates": [
          [[72.880, 19.020], [72.915, 19.020], [72.915, 19.060], [72.880, 19.060], [72.880, 19.020]]
        ]
      }
    },
    {
      "type": "Feature",
      "properties": {
        "ward_id": "ward-n",
        "ward_name": "Ward N - Ghatkopar & Vikhroli West",
        "city_id": "mumbai",
        "population": 622000,
        "population_density": 36000,
        "elderly_percent": 9.8,
        "children_percent": 7.8,
        "outdoor_worker_percent": 33.0,
        "cooling_centers": 3,
        "hospitals": 6,
        "water_points": 18,
        "ambulances": 8,
        "tree_cover": 17.0,
        "built_up_density": 83.0
      },
      "geometry": {
        "type": "Polygon",
        "coordinates": [
          [[72.895, 19.075], [72.935, 19.075], [72.935, 19.120], [72.895, 19.120], [72.895, 19.075]]
        ]
      }
    },
    {
      "type": "Feature",
      "properties": {
        "ward_id": "ward-pn",
        "ward_name": "Ward P/North - Malad & Marve",
        "city_id": "mumbai",
        "population": 941000,
        "population_density": 29000,
        "elderly_percent": 8.7,
        "children_percent": 8.3,
        "outdoor_worker_percent": 35.0,
        "cooling_centers": 4,
        "hospitals": 7,
        "water_points": 24,
        "ambulances": 9,
        "tree_cover": 23.0,
        "built_up_density": 77.0
      },
      "geometry": {
        "type": "Polygon",
        "coordinates": [
          [[72.805, 19.170], [72.860, 19.170], [72.860, 19.215], [72.805, 19.215], [72.805, 19.170]]
        ]
      }
    },
    {
      "type": "Feature",
      "properties": {
        "ward_id": "ward-ps",
        "ward_name": "Ward P/South - Goregaon",
        "city_id": "mumbai",
        "population": 463000,
        "population_density": 24000,
        "elderly_percent": 9.5,
        "children_percent": 7.7,
        "outdoor_worker_percent": 30.0,
        "cooling_centers": 3,
        "hospitals": 5,
        "water_points": 16,
        "ambulances": 7,
        "tree_cover": 32.0,
        "built_up_density": 68.0
      },
      "geometry": {
        "type": "Polygon",
        "coordinates": [
          [[72.825, 19.145], [72.875, 19.145], [72.875, 19.185], [72.825, 19.185], [72.825, 19.145]]
        ]
      }
    },
    {
      "type": "Feature",
      "properties": {
        "ward_id": "ward-rc",
        "ward_name": "Ward R/Central - Borivali",
        "city_id": "mumbai",
        "population": 562000,
        "population_density": 26000,
        "elderly_percent": 11.8,
        "children_percent": 6.9,
        "outdoor_worker_percent": 26.0,
        "cooling_centers": 3,
        "hospitals": 6,
        "water_points": 18,
        "ambulances": 8,
        "tree_cover": 29.0,
        "built_up_density": 71.0
      },
      "geometry": {
        "type": "Polygon",
        "coordinates": [
          [[72.835, 19.215], [72.880, 19.215], [72.880, 19.255], [72.835, 19.255], [72.835, 19.215]]
        ]
      }
    },
    {
      "type": "Feature",
      "properties": {
        "ward_id": "ward-rn",
        "ward_name": "Ward R/North - Dahisar",
        "city_id": "mumbai",
        "population": 431000,
        "population_density": 23000,
        "elderly_percent": 9.9,
        "children_percent": 7.8,
        "outdoor_worker_percent": 31.0,
        "cooling_centers": 2,
        "hospitals": 4,
        "water_points": 14,
        "ambulances": 6,
        "tree_cover": 25.0,
        "built_up_density": 75.0
      },
      "geometry": {
        "type": "Polygon",
        "coordinates": [
          [[72.840, 19.245], [72.885, 19.245], [72.885, 19.285], [72.840, 19.285], [72.840, 19.245]]
        ]
      }
    },
    {
      "type": "Feature",
      "properties": {
        "ward_id": "ward-rs",
        "ward_name": "Ward R/South - Kandivali",
        "city_id": "mumbai",
        "population": 691000,
        "population_density": 34000,
        "elderly_percent": 9.4,
        "children_percent": 8.0,
        "outdoor_worker_percent": 33.0,
        "cooling_centers": 3,
        "hospitals": 6,
        "water_points": 20,
        "ambulances": 8,
        "tree_cover": 18.0,
        "built_up_density": 82.0
      },
      "geometry": {
        "type": "Polygon",
        "coordinates": [
          [[72.830, 19.195], [72.875, 19.195], [72.875, 19.230], [72.830, 19.230], [72.830, 19.195]]
        ]
      }
    },
    {
      "type": "Feature",
      "properties": {
        "ward_id": "ward-s",
        "ward_name": "Ward S - Bhandup & Powai",
        "city_id": "mumbai",
        "population": 743000,
        "population_density": 27000,
        "elderly_percent": 9.0,
        "children_percent": 8.2,
        "outdoor_worker_percent": 34.0,
        "cooling_centers": 3,
        "hospitals": 6,
        "water_points": 21,
        "ambulances": 8,
        "tree_cover": 35.0,
        "built_up_density": 65.0
      },
      "geometry": {
        "type": "Polygon",
        "coordinates": [
          [[72.900, 19.115], [72.950, 19.115], [72.950, 19.170], [72.900, 19.170], [72.900, 19.115]]
        ]
      }
    },
    {
      "type": "Feature",
      "properties": {
        "ward_id": "ward-t",
        "ward_name": "Ward T - Mulund",
        "city_id": "mumbai",
        "population": 341000,
        "population_density": 21000,
        "elderly_percent": 12.0,
        "children_percent": 6.8,
        "outdoor_worker_percent": 23.0,
        "cooling_centers": 2,
        "hospitals": 5,
        "water_points": 15,
        "ambulances": 7,
        "tree_cover": 38.0,
        "built_up_density": 62.0
      },
      "geometry": {
        "type": "Polygon",
        "coordinates": [
          [[72.920, 19.165], [72.965, 19.165], [72.965, 19.210], [72.920, 19.210], [72.920, 19.165]]
        ]
      }
    }
  ]
}
